NORAD_CAT_ID,OBJECT_NAME,OBJECT_TYPE,EPOCH,MEAN_MOTION,ECCENTRICITY,INCLINATION,RA_OF_ASC_NODE,ARG_OF_PERICENTER,MEAN_ANOMALY,BSTAR,MEAN_MOTION_DOT,MEAN_MOTION_DDOT,TLE_LINE0,TLE_LINE1,TLE_LINE2,SEMIMAJOR_AXIS,PERIOD,APOGEE,PERIGEE,DECAYED
52559.0,STARLINK-3953,PAYLOAD,2022-08-19 14:00:01,15.08837443,0.0002274,53.2144,186.543,54.107,186.9192,-0.0021325,-0.00034066,0.0,0 STARLINK-3953,1 52559U 22051AC  22231.58334491 -.00034066  00000-0 -21325-2 0  9999,2 52559  53.2144 186.5430 0002274  54.1070 186.9192 15.08837443  1309,6917.888000000001,95.438,541.326,538.18,0.0
52559.0,STARLINK-3953,PAYLOAD,2022-08-19 16:00:00,15.08802961,0.0002230999999999,53.2145,186.1686,55.1567,278.7728,0.0016194,0.00025553,0.0,0 STARLINK-3953,1 52559U 22051AC  22231.66667824  .00025553  00000-0  16194-2 0  9994,2 52559  53.2145 186.1686 0002231  55.1567 278.7728 15.08802961 15693,6917.994000000002,95.44,541.4019999999998,538.315,0.0
52559.0,STARLINK-3953,PAYLOAD,2022-08-19 22:00:00,15.08827844,0.0002279999999999,53.2145,185.0463,58.0088,194.5854,0.00041239,6.279e-05,0.0,0 STARLINK-3953,1 52559U 22051AC  22231.91667824  .00006279  00000-0  41239-3 0  9995,2 52559  53.2145 185.0463 0002280  58.0088 194.5854 15.08827844  1303,6917.918000000002,95.438,541.36,538.205,0.0
52559.0,STARLINK-3953,PAYLOAD,2022-08-20 14:00:01,15.08849492,0.0002284,53.2147,182.0537,54.2024,221.5549,-0.0035594,-0.00056509,0.0,0 STARLINK-3953,1 52559U 22051AC  22232.58334491 -.00056509  00000-0 -35594-2 0  9999,2 52559  53.2147 182.0537 0002284  54.2024 221.5549 15.08849492  1301,6917.851,95.437,541.2959999999998,538.136,0.0
52559.0,STARLINK-3953,PAYLOAD,2022-08-20 16:00:00,15.08812237,0.0002236,53.2147,181.6793,55.8451,312.8208,0.00062745,9.704e-05,0.0,0 STARLINK-3953,1 52559U 22051AC  22232.66667824  .00009704  00000-0  62745-3 0  9999,2 52559  53.2147 181.6793 0002236  55.8451 312.8208 15.08812237 15845,6917.965,95.439,541.377,538.283,0.0
52559.0,STARLINK-3953,PAYLOAD,2022-08-20 22:00:00,15.08824248,0.0002275,53.2149,180.5571,57.2512,230.0795,4.3455e-05,4.03e-06,0.0,0 STARLINK-3953,1 52559U 22051AC  22232.91667824  .00000403  00000-0  43455-4 0  9992,2 52559  53.2149 180.5571 0002275  57.2512 230.0795 15.08824248  1309,6917.929,95.439,541.367,538.22,0.0
52559.0,STARLINK-3953,PAYLOAD,2022-08-21 14:00:01,15.08833533,0.0002331,53.2151,177.5645,55.5251,254.9531,-0.00045338,-7.496e-05,0.0,0 STARLINK-3953,1 52559U 22051AC  22233.58334491 -.00007496  00000-0 -45338-3 0  9999,2 52559  53.2151 177.5645 0002331  55.5251 254.9531 15.08833533  1304,6917.9,95.438,541.378,538.153,0.0
52559.0,STARLINK-3953,PAYLOAD,2022-08-21 22:00:00,15.08845183,0.0002346,53.2154,176.0681,58.5593,263.4932,-0.00040992,-6.808e-05,0.0,0 STARLINK-3953,1 52559U 22051AC  22233.91667824 -.00006808  00000-0 -40992-3 0  9992,2 52559  53.2154 176.0681 0002346  58.5593 263.4932 15.08845183  1303,6917.865,95.437,541.352,538.107,0.0
52559.0,STARLINK-3953,PAYLOAD,2022-08-22 12:00:00,15.08861196,0.0002406,53.2153,173.4498,56.0266,196.3149,-0.0020055,-0.00032084,0.0,0 STARLINK-3953,1 52559U 22051AC  22234.50001157 -.00032084  00000-0 -20055-2 0  9991,2 52559  53.2153 173.4498 0002406  56.0266 196.3149 15.08861196  1302,6917.816,95.436,541.345,538.016,0.0
52559.0,STARLINK-3953,PAYLOAD,2022-08-22 22:00:00,15.08869782,0.0002351,53.2158,171.5791,59.9164,296.926,-0.001638,-0.00026285,0.0,0 STARLINK-3953,1 52559U 22051AC  22234.91667824 -.00026285  00000-0 -16380-2 0  9997,2 52559  53.2158 171.5791 0002351  59.9164 296.9260 15.08869782 16182,6917.7890000000025,95.436,541.281,538.028,0.0
52559.0,STARLINK-3953,PAYLOAD,2022-08-23 14:00:01,15.08824898,0.0002278,53.2157,168.5861,58.9326,321.1222,0.0004311,6.577e-05,0.0,0 STARLINK-3953,1 52559U 22051AC  22235.58334491  .00006577  00000-0  43110-3 0  9994,2 52559  53.2157 168.5861 0002278  58.9326 321.1222 15.08824898  1308,6917.927,95.439,541.367,538.216,0.0
52559.0,STARLINK-3953,PAYLOAD,2022-08-23 22:00:01,15.08852476,0.0002307,53.2159,167.0902,60.7245,330.969,-0.0013753,-0.00022118,0.0,0 STARLINK-3953,1 52559U 22051AC  22235.91668981 -.00022118  00000-0 -13753-2 0  9995,2 52559  53.2159 167.0902 0002307  60.7245 330.9690 15.08852476 16333,6917.842,95.437,541.303,538.111,0.0
52559.0,STARLINK-3953,PAYLOAD,2022-08-24 14:00:01,15.08830993,0.0002296999999999,53.2156,164.0971,61.7896,353.0374,0.00096587,0.00015114,0.0,0 STARLINK-3953,1 52559U 22051AC  22236.58334491  .00015114  00000-0  96587-3 0  9998,2 52559  53.2156 164.0971 0002297  61.7896 353.0374 15.08830993  1300,6917.908,95.438,541.362,538.184,0.0
52559.0,STARLINK-3953,PAYLOAD,2022-08-24 22:00:00,15.08862831,0.000236,53.2157,162.6014,63.0598,3.3531,-0.0017395,-0.00027884,0.0,0 STARLINK-3953,1 52559U 22051AC  22236.91667824 -.00027884  00000-0 -17395-2 0  9992,2 52559  53.2157 162.6014 0002360  63.0598   3.3531 15.08862831 16489,6917.811,95.436,541.308,538.043,0.0
52559.0,STARLINK-3953,PAYLOAD,2022-08-25 14:00:01,15.08843814,0.0002319,53.2155,159.6082,63.6048,26.0301,0.00052649,8.102e-05,0.0,0 STARLINK-3953,1 52559U 22051AC  22237.58334491  .00008102  00000-0  52649-3 0  9999,2 52559  53.2155 159.6082 0002319  63.6048  26.0301 15.08843814  1300,6917.869000000002,95.437,541.3380000000002,538.129,0.0
52559.0,STARLINK-3953,PAYLOAD,2022-08-25 22:00:00,15.08859623,0.0002359,53.2155,158.1125,63.8963,37.3399,-0.003192,-0.00050761,0.0,0 STARLINK-3953,1 52559U 22051AC  22237.91667824 -.00050761  00000-0 -31920-2 0  9993,2 52559  53.2155 158.1125 0002359  63.8963  37.3399 15.08859623  1301,6917.82,95.436,541.317,538.053,0.0
52559.0,STARLINK-3953,PAYLOAD,2022-08-26 06:00:00,15.08811084,0.0002420999999999,53.2153,156.6173,58.8015,54.0345,0.0026683,0.00042401,0.0,0 STARLINK-3953,1 52559U 22051AC  22238.25001157  .00042401  00000-0  26683-2 0  9992,2 52559  53.2153 156.6173 0002421  58.8015  54.0345 15.08811084 16680,6917.969,95.439,541.509,538.159,0.0
52559.0,STARLINK-3953,PAYLOAD,2022-08-26 14:00:01,15.08818019,0.0002304,53.2155,155.1191,64.025,60.4594,0.0019062,0.00030162,0.0,0 STARLINK-3953,1 52559U 22051AC  22238.58335648  .00030162  00000-0  19062-2 0  9997,2 52559  53.2155 155.1191 0002304  64.0250  60.4594 15.08818019  1301,6917.948,95.439,541.406,538.219,0.0
52559.0,STARLINK-3953,PAYLOAD,2022-08-26 20:00:01,15.08848177,0.0002394,53.2156,153.9972,65.8058,337.2939,-0.0004721999999999,-7.798e-05,0.0,0 STARLINK-3953,1 52559U 22051AC  22238.83334491 -.00007798  00000-0 -47220-3 0  9999,2 52559  53.2156 153.9972 0002394  65.8058 337.2939 15.08848177 16772,6917.855,95.437,541.377,538.064,0.0
52559.0,STARLINK-3953,PAYLOAD,2022-08-26 22:00:00,15.08854961,0.0002432,53.2156,153.6235,64.4569,71.5419,-0.0017522,-0.00028079,0.0,0 STARLINK-3953,1 52559U 22051AC  22238.91667824 -.00028079  00000-0 -17522-2 0  9993,2 52559  53.2156 153.6235 0002432  64.4569  71.5419 15.08854961  1308,6917.835,95.437,541.382,538.0169999999998,0.0
52559.0,STARLINK-3953,PAYLOAD,2022-08-27 14:00:01,15.08841015,0.0002359,53.2157,150.63,64.7337,94.4732,0.00029013,4.332e-05,0.0,0 STARLINK-3953,1 52559U 22051AC  22239.58334491  .00004332  00000-0  29013-3 0  9991,2 52559  53.2157 150.6300 0002359  64.7337  94.4732 15.08841015  1301,6917.877,95.437,541.374,538.11,0.0
52559.0,STARLINK-3953,PAYLOAD,2022-08-27 22:00:00,15.0884853,0.0002424999999999,53.2158,149.1345,63.8935,106.9105,-0.0021048,-0.0003364,0.0,0 STARLINK-3953,1 52559U 22051AC  22239.91667824 -.00033640  00000-0 -21048-2 0  9992,2 52559  53.2158 149.1345 0002425  63.8935 106.9105 15.08848530 16939,6917.854,95.437,541.3969999999998,538.0419999999998,0.0
52559.0,STARLINK-3953,PAYLOAD,2022-08-28 14:00:01,15.0882236,0.0002372,53.2159,146.1408,65.0065,128.9915,0.0027112,0.00043105,0.0,0 STARLINK-3953,1 52559U 22051AC  22240.58334491  .00043105  00000-0  27112-2 0  9991,2 52559  53.2159 146.1408 0002372  65.0065 128.9915 15.08822360  1307,6917.934,95.439,541.44,538.158,0.0
52559.0,STARLINK-3953,PAYLOAD,2022-08-28 22:00:00,15.08873742,0.0002452,53.2161,144.6455,64.3733,141.2137,-0.0041501,-0.00065799,0.0,0 STARLINK-3953,1 52559U 22051AC  22240.91667824 -.00065799  00000-0 -41501-2 0  9990,2 52559  53.2161 144.6455 0002452  64.3733 141.2137 15.08873742  1302,6917.776999999999,95.435,541.3380000000002,537.946,0.0
52559.0,STARLINK-3953,PAYLOAD,2022-08-29 06:00:02,15.08819614,0.0002458,53.2159,143.1497,60.2898,156.9654,0.0013395999999999,0.00021085,0.0,0 STARLINK-3953,1 52559U 22051AC  22241.25002315  .00021085  00000-0  13396-2 0  9995,2 52559  53.2159 143.1497 0002458  60.2898 156.9654 15.08819614 17135,6917.943,95.439,541.508,538.107,0.0
52559.0,STARLINK-3953,PAYLOAD,2022-08-29 14:00:01,15.08810506,0.0002342,53.216,141.6516,65.8306,162.9505,0.002803,0.00044569,0.0,0 STARLINK-3953,1 52559U 22051AC  22241.58334491  .00044569  00000-0  28030-2 0  9997,2 52559  53.2160 141.6516 0002342  65.8306 162.9505 15.08810506  1304,6917.971,95.439,541.456,538.215,0.0
52559.0,STARLINK-3953,PAYLOAD,2022-08-29 22:00:00,15.08851354,0.0002433,53.2161,140.1564,64.6995,175.6617,-0.0010886,-0.00017578,0.0,0 STARLINK-3953,1 52559U 22051AC  22241.91667824 -.00017578  00000-0 -10886-2 0  9995,2 52559  53.2161 140.1564 0002433  64.6995 175.6617 15.08851354  1305,6917.846,95.437,541.394,538.028,0.0
52559.0,STARLINK-3953,PAYLOAD,2022-08-30 06:00:00,15.08856071,0.0002418,53.2157,138.6604,61.7802,190.1769,-0.0021905,-0.00034998,0.0,0 STARLINK-3953,1 52559U 22051AC  22242.25001157 -.00034998  00000-0 -21905-2 0  9993,2 52559  53.2157 138.6604 0002418  61.7802 190.1769 15.08856071 17291,6917.831,95.437,541.369,538.024,0.0
52559.0,STARLINK-3953,PAYLOAD,2022-08-30 14:00:01,15.08802945,0.0002254999999999,53.2158,137.1623,67.3006,196.2663,0.0031197,0.00049663,0.0,0 STARLINK-3953,1 52559U 22051AC  22242.58334491  .00049663  00000-0  31197-2 0  9996,2 52559  53.2158 137.1623 0002255  67.3006 196.2663 15.08802945  1300,6917.994000000002,95.44,541.419,538.299,0.0
